$$SOE
2460147.500000000, A.D. 2023-Jul-22 00:00:00.0000, -7.457538242116138E+08, -4.457207301203471E+09, 4.820483462441380E+08,
2460154.500000000, A.D. 2023-Jul-29 00:00:00.0000, -7.422529871163388E+08, -4.457988668228250E+09, 4.815557411026790E+08,
2460161.500000000, A.D. 2023-Aug-05 00:00:00.0000, -7.387518495972372E+08, -4.458767753217828E+09, 4.810628889935434E+08,
2460168.500000000, A.D. 2023-Aug-12 00:00:00.0000, -7.352504158037727E+08, -4.459544557953729E+09, 4.805697903455698E+08,
2460175.500000000, A.D. 2023-Aug-19 00:00:00.0000, -7.317486895805320E+08, -4.460319084708192E+09, 4.800764455575602E+08,
2460182.500000000, A.D. 2023-Aug-26 00:00:00.0000, -7.282466744664745E+08, -4.461091336154161E+09, 4.795828550043662E+08,
2460189.500000000, A.D. 2023-Sep-02 00:00:00.0000, -7.247443737171835E+08, -4.461861315346615E+09, 4.790890190383003E+08,
2460196.500000000, A.D. 2023-Sep-09 00:00:00.0000, -7.212417903134909E+08, -4.462629025816403E+09, 4.785949379791970E+08,
2460203.500000000, A.D. 2023-Sep-16 00:00:00.0000, -7.177389267880524E+08, -4.463394471834650E+09, 4.781006120729778E+08,
2460210.500000000, A.D. 2023-Sep-23 00:00:00.0000, -7.142357844534627E+08, -4.464157658560891E+09, 4.776060414040396E+08,
2460217.500000000, A.D. 2023-Sep-30 00:00:00.0000, -7.107323623714753E+08, -4.464918590884254E+09, 4.771112258900046E+08,
2460224.500000000, A.D. 2023-Oct-07 00:00:00.0000, -7.072286584170676E+08, -4.465677271500510E+09, 4.766161655305150E+08,
2460231.500000000, A.D. 2023-Oct-14 00:00:00.0000, -7.037246713974538E+08, -4.466433701538130E+09, 4.761208605440731E+08,
2460238.500000000, A.D. 2023-Oct-21 00:00:00.0000, -7.002204009974401E+08, -4.467187882130676E+09, 4.756253112279670E+08,
2460245.500000000, A.D. 2023-Oct-28 00:00:00.0000, -6.967158469754807E+08, -4.467939814675363E+09, 4.751295178568699E+08,
2460252.500000000, A.D. 2023-Nov-04 00:00:00.0000, -6.932110088604635E+08, -4.468689500548194E+09, 4.746334806720431E+08,
2460259.500000000, A.D. 2023-Nov-11 00:00:00.0000, -6.897058859716618E+08, -4.469436940875565E+09, 4.741371998961143E+08,
2460266.500000000, A.D. 2023-Nov-18 00:00:00.0000, -6.862004775423539E+08, -4.470182136426620E+09, 4.736406757482862E+08,
2460273.500000000, A.D. 2023-Nov-25 00:00:00.0000, -6.826947828742803E+08, -4.470925087603811E+09, 4.731439084553728E+08,
2460280.500000000, A.D. 2023-Dec-02 00:00:00.0000, -6.791888014947579E+08, -4.471665794542850E+09, 4.726468982553270E+08,
2460287.500000000, A.D. 2023-Dec-09 00:00:00.0000, -6.756825332386217E+08, -4.472404257380980E+09, 4.721496453814361E+08,
2460294.500000000, A.D. 2023-Dec-16 00:00:00.0000, -6.721759779674505E+08, -4.473140476680983E+09, 4.716521500018678E+08,
2460301.500000000, A.D. 2023-Dec-23 00:00:00.0000, -6.686691345776218E+08, -4.473874453323488E+09, 4.711544121387389E+08,
2460308.500000000, A.D. 2023-Dec-30 00:00:00.0000, -6.651620006374127E+08, -4.474606186818326E+09, 4.706564317752759E+08,
2460315.500000000, A.D. 2024-Jan-06 00:00:00.0000, -6.616545744256109E+08, -4.475335674395643E+09, 4.701582091205456E+08,
2460322.500000000, A.D. 2024-Jan-13 00:00:00.0000, -6.581468561988763E+08, -4.476062912683678E+09, 4.696597445928478E+08,
2460329.500000000, A.D. 2024-Jan-20 00:00:00.0000, -6.546388474643042E+08, -4.476787898888629E+09, 4.691610386613770E+08,
2460336.500000000, A.D. 2024-Jan-27 00:00:00.0000, -6.511305502859284E+08, -4.477510630824406E+09, 4.686620917852814E+08,
2460343.500000000, A.D. 2024-Feb-03 00:00:00.0000, -6.476219670535302E+08, -4.478231106740888E+09, 4.681629044116497E+08,
2460350.500000000, A.D. 2024-Feb-10 00:00:00.0000, -6.441131004363986E+08, -4.478949325241809E+09, 4.676634769829886E+08,
2460357.500000000, A.D. 2024-Feb-17 00:00:00.0000, -6.406039533833325E+08, -4.479665285284333E+09, 4.671638099419289E+08,
2460364.500000000, A.D. 2024-Feb-24 00:00:00.0000, -6.370945291329573E+08, -4.480378986245544E+09, 4.666639037309356E+08,
2460371.500000000, A.D. 2024-Mar-02 00:00:00.0000, -6.335848312049996E+08, -4.481090428088362E+09, 4.661637587815638E+08,
2460378.500000000, A.D. 2024-Mar-09 00:00:00.0000, -6.300748632337147E+08, -4.481799611689734E+09, 4.656633754753020E+08,
2460385.500000000, A.D. 2024-Mar-16 00:00:00.0000, -6.265646282481654E+08, -4.482506539133867E+09, 4.651627540558288E+08,
2460392.500000000, A.D. 2024-Mar-23 00:00:00.0000, -6.230541275029222E+08, -4.483211212861408E+09, 4.646618945927551E+08,
2460399.500000000, A.D. 2024-Mar-30 00:00:00.0000, -6.195433611003362E+08, -4.483913633701412E+09, 4.641607972002323E+08,
2460406.500000000, A.D. 2024-Apr-06 00:00:00.0000, -6.160323301483489E+08, -4.484613801153683E+09, 4.636594622117100E+08,
2460413.500000000, A.D. 2024-Apr-13 00:00:00.0000, -6.125210369027072E+08, -4.485311715085065E+09, 4.631578900534818E+08,
2460420.500000000, A.D. 2024-Apr-20 00:00:00.0000, -6.090094838457315E+08, -4.486007376163047E+09, 4.626560811231179E+08,
2460427.500000000, A.D. 2024-Apr-27 00:00:00.0000, -6.054976732186570E+08, -4.486700785588042E+09, 4.621540357660801E+08,
2460434.500000000, A.D. 2024-May-04 00:00:00.0000, -6.019856069196315E+08, -4.487391944827646E+09, 4.616517542850356E+08,
2460441.500000000, A.D. 2024-May-11 00:00:00.0000, -5.984732865290296E+08, -4.488080855454505E+09, 4.611492369517956E+08,
2460448.500000000, A.D. 2024-May-18 00:00:00.0000, -5.949607133800966E+08, -4.488767519065897E+09, 4.606464840162654E+08,
2460455.500000000, A.D. 2024-May-25 00:00:00.0000, -5.914478886502045E+08, -4.489451937291825E+09, 4.601434957097261E+08,
2460462.500000000, A.D. 2024-Jun-01 00:00:00.0000, -5.879348134128714E+08, -4.490134111948734E+09, 4.596402722324948E+08,
2460469.500000000, A.D. 2024-Jun-08 00:00:00.0000, -5.844214884041854E+08, -4.490814045361489E+09, 4.591368137017334E+08,
2460476.500000000, A.D. 2024-Jun-15 00:00:00.0000, -5.809079131041104E+08, -4.491491740308247E+09, 4.586331200675623E+08,
2460483.500000000, A.D. 2024-Jun-22 00:00:00.0000, -5.773940851378905E+08, -4.492167198412856E+09, 4.581291911860054E+08,
2460490.500000000, A.D. 2024-Jun-29 00:00:00.0000, -5.738800021191869E+08, -4.492840418805384E+09, 4.576250270947959E+08,
2460497.500000000, A.D. 2024-Jul-06 00:00:00.0000, -5.703656632899405E+08, -4.493511399521746E+09, 4.571206280477459E+08,
2460504.500000000, A.D. 2024-Jul-13 00:00:00.0000, -5.668510690077084E+08, -4.494180138818244E+09, 4.566159943598101E+08,
2460511.500000000, A.D. 2024-Jul-20 00:00:00.0000, -5.633362200661308E+08, -4.494846635252261E+09, 4.561111263389583E+08,
2460518.500000000, A.D. 2024-Jul-27 00:00:00.0000, -5.598211175045229E+08, -4.495510887488543E+09, 4.556060242866161E+08,
2460525.500000000, A.D. 2024-Aug-03 00:00:00.0000, -5.563057626336602E+08, -4.496172894205891E+09, 4.551006885109332E+08,
2460532.500000000, A.D. 2024-Aug-10 00:00:00.0000, -5.527901571119809E+08, -4.496832654108571E+09, 4.545951193371663E+08,
2460539.500000000, A.D. 2024-Aug-17 00:00:00.0000, -5.492743030248797E+08, -4.497490166020389E+09, 4.540893171124246E+08,
2460546.500000000, A.D. 2024-Aug-24 00:00:00.0000, -5.457582029392542E+08, -4.498145429083332E+09, 4.535832822001522E+08,
2460553.500000000, A.D. 2024-Aug-31 00:00:00.0000, -5.422418598176842E+08, -4.498798443121918E+09, 4.530770149484804E+08,
2460560.500000000, A.D. 2024-Sep-07 00:00:00.0000, -5.387252764267431E+08, -4.499449209046487E+09, 4.525705156089697E+08,
2460567.500000000, A.D. 2024-Sep-14 00:00:00.0000, -5.352084541541975E+08, -4.500097728299282E+09, 4.520637842790818E+08,
2460574.500000000, A.D. 2024-Sep-21 00:00:00.0000, -5.316913932639236E+08, -4.500744000930513E+09, 4.515568210879555E+08,
2460581.500000000, A.D. 2024-Sep-28 00:00:00.0000, -5.281740950760369E+08, -4.501388025531847E+09, 4.510496264062500E+08,
2460588.500000000, A.D. 2024-Oct-05 00:00:00.0000, -5.246565624025302E+08, -4.502029801025543E+09, 4.505422007434649E+08,
2460595.500000000, A.D. 2024-Oct-12 00:00:00.0000, -5.211387985990448E+08, -4.502669327328987E+09, 4.500345446092570E+08,
2460602.500000000, A.D. 2024-Oct-19 00:00:00.0000, -5.176208069836956E+08, -4.503306605165304E+09, 4.495266584771588E+08,
2460609.500000000, A.D. 2024-Oct-26 00:00:00.0000, -5.141025906552894E+08, -4.503941635821258E+09, 4.490185427881653E+08,
2460616.500000000, A.D. 2024-Nov-02 00:00:00.0000, -5.105841524534990E+08, -4.504574421000569E+09, 4.485101979584672E+08,
2460623.500000000, A.D. 2024-Nov-09 00:00:00.0000, -5.070654949642629E+08, -4.505204962751694E+09, 4.480016243841810E+08,
2460630.500000000, A.D. 2024-Nov-16 00:00:00.0000, -5.035466205443493E+08, -4.505833263469490E+09, 4.474928224407806E+08,
2460637.500000000, A.D. 2024-Nov-23 00:00:00.0000, -5.000275313180072E+08, -4.506459326020391E+09, 4.469837924689140E+08,
2460644.500000000, A.D. 2024-Nov-30 00:00:00.0000, -4.965082289372734E+08, -4.507083154033471E+09, 4.464745347240815E+08,
2460651.500000000, A.D. 2024-Dec-07 00:00:00.0000, -4.929887136863866E+08, -4.507704751936590E+09, 4.459650492862012E+08,
2460658.500000000, A.D. 2024-Dec-14 00:00:00.0000, -4.894689836188472E+08, -4.508324123513400E+09, 4.454553360923450E+08,
2460665.500000000, A.D. 2024-Dec-21 00:00:00.0000, -4.859490360456074E+08, -4.508941270221925E+09, 4.449453952040884E+08,
2460672.500000000, A.D. 2024-Dec-28 00:00:00.0000, -4.824288694018703E+08, -4.509556192241900E+09, 4.444352268862085E+08,
2460679.500000000, A.D. 2025-Jan-04 00:00:00.0000, -4.789084828952060E+08, -4.510168889874650E+09, 4.439248314529119E+08,
2460686.500000000, A.D. 2025-Jan-11 00:00:00.0000, -4.753878757561613E+08, -4.510779363635619E+09, 4.434142091845162E+08,
2460693.500000000, A.D. 2025-Jan-18 00:00:00.0000, -4.718670470081735E+08, -4.511387613958342E+09, 4.429033603238595E+08,
2460700.500000000, A.D. 2025-Jan-25 00:00:00.0000, -4.683459955131696E+08, -4.511993640984345E+09, 4.423922850915678E+08,
2460707.500000000, A.D. 2025-Feb-01 00:00:00.0000, -4.648247201032131E+08, -4.512597444469183E+09, 4.418809837006266E+08,
$$EOE